NORAD_CAT_ID,OBJECT_NAME,OBJECT_TYPE,EPOCH,MEAN_MOTION,ECCENTRICITY,INCLINATION,RA_OF_ASC_NODE,ARG_OF_PERICENTER,MEAN_ANOMALY,BSTAR,MEAN_MOTION_DOT,MEAN_MOTION_DDOT,TLE_LINE0,TLE_LINE1,TLE_LINE2,SEMIMAJOR_AXIS,PERIOD,APOGEE,PERIGEE,DECAYED
53170.0,STARLINK-4095,PAYLOAD,2024-02-08 22:40:24,15.08879183,0.0002058,53.2188,329.686,121.7183,238.401,-0.00039232,-6.534e-05,0.0,0 STARLINK-4095,1 53170U 22083AQ  24039.94473286 -.00006534  00000-0 -39232-3 0  9994,2 53170  53.2188 329.6860 0002058 121.7183 238.4010 15.08879183 86739,6917.761,95.435,541.049,538.202,0.0
53170.0,STARLINK-4095,PAYLOAD,2024-02-09 01:51:11,15.08848826,0.0001534,53.2187,329.1014,95.5383,264.5784,6.2638e-05,7.09e-06,0.0,0 STARLINK-4095,1 53170U 22083AQ  24040.07721526  .00000709  00000-0  62638-4 0  9996,2 53170  53.2187 329.1014 0001534  95.5383 264.5784 15.08848826 87382,6917.853,95.437,540.78,538.657,0.0
53170.0,STARLINK-4095,PAYLOAD,2024-02-09 05:01:57,15.08852035,0.0001682,53.2196,328.5021,114.8602,245.2565,6.2992e-05,7.15e-06,0.0,0 STARLINK-4095,1 53170U 22083AQ  24040.20969141  .00000715  00000-0  62992-4 0  9998,2 53170  53.2196 328.5021 0001682 114.8602 245.2565 15.08852035 86778,6917.844,95.437,540.872,538.545,0.0
53170.0,STARLINK-4095,PAYLOAD,2024-02-09 19:20:27,15.08829513,0.0001461,53.2199,325.8334,92.5526,267.5633,-5.1527e-05,-1.108e-05,0.0,0 STARLINK-4095,1 53170U 22083AQ  24040.80587324 -.00001108  00000-0 -51527-4 0  9994,2 53170  53.2199 325.8334 0001461  92.5526 267.5633 15.08829513 87498,6917.912,95.438,540.788,538.767,0.0
53170.0,STARLINK-4095,PAYLOAD,2024-02-10 01:41:59,15.0883507,0.0001455,53.2188,324.6442,109.2789,250.8361,-3.632e-06,-3.46e-06,0.0,0 STARLINK-4095,1 53170U 22083AQ  24041.07082863 -.00000346  00000-0 -36320-5 0  9990,2 53170  53.2188 324.6442 0001455 109.2789 250.8361 15.08835070 87536,6917.895,95.438,540.767,538.754,0.0
53170.0,STARLINK-4095,PAYLOAD,2024-02-10 04:52:45,15.08837684,0.000145,53.2188,324.0455,115.5802,244.534,2.3702e-05,8.9e-07,0.0,0 STARLINK-4095,1 53170U 22083AQ  24041.20330634  .00000089  00000-0  23702-4 0  9998,2 53170  53.2188 324.0455 0001450 115.5802 244.5340 15.08837684 86927,6917.887,95.438,540.756,538.749,0.0
53170.0,STARLINK-4095,PAYLOAD,2024-02-10 22:21:59,15.08848605,0.0001148,53.2179,320.7747,96.1132,263.999,-8.5743e-06,-4.24e-06,0.0,0 STARLINK-4095,1 53170U 22083AQ  24041.93194312 -.00000424  00000-0 -85743-5 0  9998,2 53170  53.2179 320.7747 0001148  96.1132 263.9990 15.08848605 87032,6917.854,95.437,540.513,538.925,0.0
53170.0,STARLINK-4095,PAYLOAD,2024-02-10 23:57:22,15.08849641,0.000112,53.2177,320.4774,90.492,269.62,1.7678e-06,-2.6e-06,0.0,0 STARLINK-4095,1 53170U 22083AQ  24041.99818206 -.00000260  00000-0  17678-5 0  9998,2 53170  53.2177 320.4774 0001120  90.4920 269.6200 15.08849641 87677,6917.851,95.437,540.491,538.941,0.0
53170.0,STARLINK-4095,PAYLOAD,2024-02-11 22:12:47,15.08839629,9.2e-05,53.2176,316.3141,85.7886,274.3211,0.00012081,1.635e-05,0.0,0 STARLINK-4095,1 53170U 22083AQ  24042.92554441  .00001635  00000-0  12081-3 0  9997,2 53170  53.2176 316.3141 0000920  85.7886 274.3211 15.08839629 87189,6917.882,95.438,540.383,539.11,0.0
53170.0,STARLINK-4095,PAYLOAD,2024-02-12 01:23:32,15.08855564,0.0001012,53.2183,315.7194,108.854,251.2562,0.00023051,3.384e-05,0.0,0 STARLINK-4095,1 53170U 22083AQ  24043.05801150  .00003384  00000-0  23051-3 0  9996,2 53170  53.2183 315.7194 0001012 108.8540 251.2562 15.08855564 87836,6917.833,95.437,540.398,538.998,0.0
53170.0,STARLINK-4095,PAYLOAD,2024-02-12 04:34:18,15.08854251,0.0001119,53.2184,315.1247,113.5675,246.5435,0.00021464,3.131e-05,0.0,0 STARLINK-4095,1 53170U 22083AQ  24043.19049240  .00003131  00000-0  21464-3 0  9991,2 53170  53.2184 315.1247 0001119 113.5675 246.5435 15.08854251 87221,6917.837,95.437,540.476,538.928,0.0
53170.0,STARLINK-4095,PAYLOAD,2024-02-12 22:03:34,15.08841118,0.0001344,53.2176,311.848,126.853,233.2585,-1.5804e-05,-5.39e-06,0.0,0 STARLINK-4095,1 53170U 22083AQ  24043.91914497 -.00000539  00000-0 -15804-4 0  9999,2 53170  53.2176 311.8480 0001344 126.8530 233.2585 15.08841118 87330,6917.877,95.437,540.672,538.812,0.0
53170.0,STARLINK-4095,PAYLOAD,2024-02-13 02:49:43,15.08846182,0.0001228,53.2181,310.9592,96.9355,263.1777,4.6876e-05,4.58e-06,0.0,0 STARLINK-4095,1 53170U 22083AQ  24044.11786179  .00000458  00000-0  46876-4 0  9997,2 53170  53.2181 310.9592 0001228  96.9355 263.1777 15.08846182 87996,6917.861,95.437,540.576,538.877,0.0
53170.0,STARLINK-4095,PAYLOAD,2024-02-13 10:46:39,15.08840119,0.000147,53.218,309.4779,118.2617,241.8524,6.049e-05,6.75e-06,0.0,0 STARLINK-4095,1 53170U 22083AQ  24044.44906561  .00000675  00000-0  60490-4 0  9991,2 53170  53.2180 309.4779 0001470 118.2617 241.8524 15.08840119 88047,6917.88,95.438,540.762,538.728,0.0
53170.0,STARLINK-4095,PAYLOAD,2024-02-13 21:54:21,15.08847096,0.0001556,53.2181,307.3955,85.2074,274.9096,-8.3343e-05,-1.614e-05,0.0,0 STARLINK-4095,1 53170U 22083AQ  24044.91274710 -.00001614  00000-0 -83343-4 0  9995,2 53170  53.2181 307.3955 0001556  85.2074 274.9096 15.08847096 87485,6917.859,95.437,540.8,538.647,0.0
53170.0,STARLINK-4095,PAYLOAD,2024-02-14 01:05:06,15.08856512,0.0001089,53.2182,306.8013,89.8355,270.2762,-8.5474e-06,-4.24e-06,0.0,0 STARLINK-4095,1 53170U 22083AQ  24045.04521753 -.00000424  00000-0 -85474-5 0  9998,2 53170  53.2182 306.8013 0001089  89.8355 270.2762 15.08856512 88133,6917.83,95.437,540.448,538.942,0.0
53170.0,STARLINK-4095,PAYLOAD,2024-02-14 10:37:25,15.08848664,0.0001317,53.2194,305.0161,89.3128,270.8015,-3.1611e-05,-7.91e-06,0.0,0 STARLINK-4095,1 53170U 22083AQ  24045.44266147 -.00000791  00000-0 -31611-4 0  9995,2 53170  53.2194 305.0161 0001317  89.3128 270.8015 15.08848664 88190,6917.854,95.437,540.63,538.808,0.0
53170.0,STARLINK-4095,PAYLOAD,2024-02-14 21:45:07,15.0884854,0.0001347,53.2177,302.9364,93.3423,266.7723,7.6835e-05,9.35e-06,0.0,0 STARLINK-4095,1 53170U 22083AQ  24045.90634209  .00000935  00000-0  76835-4 0  9999,2 53170  53.2177 302.9364 0001347  93.3423 266.7723 15.08848540 87639,6917.854,95.437,540.651,538.787,0.0
53170.0,STARLINK-4095,PAYLOAD,2024-02-14 23:20:30,15.0885133,0.0001325,53.2178,302.6393,95.042,265.0724,0.00010544,1.391e-05,0.0,0 STARLINK-4095,1 53170U 22083AQ  24045.97257961  .00001391  00000-0  10544-3 0  9993,2 53170  53.2178 302.6393 0001325  95.0420 265.0724 15.08851330 87646,6917.846,95.437,540.627,538.794,0.0
53170.0,STARLINK-4095,PAYLOAD,2024-02-15 20:00:33,15.08828137,0.0001337,53.2176,298.7734,88.1815,271.933,3.6595e-05,2.94e-06,0.0,0 STARLINK-4095,1 53170U 22083AQ  24046.83371696  .00000294  00000-0  36595-4 0  9997,2 53170  53.2176 298.7734 0001337  88.1815 271.9330 15.08828137 88405,6917.917,95.438,540.707,538.857,0.0
53170.0,STARLINK-4095,PAYLOAD,2024-02-15 23:11:19,15.08829429,0.0001164,53.2184,298.1791,90.2919,269.8206,7.5026e-05,9.06e-06,0.0,0 STARLINK-4095,1 53170U 22083AQ  24046.96619488  .00000906  00000-0  75026-4 0  9997,2 53170  53.2184 298.1791 0001164  90.2919 269.8206 15.08829429 87792,6917.913,95.438,540.583,538.972,0.0
53170.0,STARLINK-4095,PAYLOAD,2024-02-16 02:22:05,15.08837806,0.0001634,53.2181,297.583,90.5572,269.5607,6.2459e-06,-1.89e-06,0.0,0 STARLINK-4095,1 53170U 22083AQ  24047.09867275 -.00000189  00000-0  62459-5 0  9992,2 53170  53.2181 297.5830 0001634  90.5572 269.5607 15.08837806 88449,6917.887,95.438,540.882,538.622,0.0
53170.0,STARLINK-4095,PAYLOAD,2024-02-16 21:26:42,15.08839395,0.0001329,53.2186,294.0151,93.2416,266.8729,0.00013984,1.938e-05,0.0,0 STARLINK-4095,1 53170U 22083AQ  24047.89354667  .00001938  00000-0  13984-3 0  9995,2 53170  53.2186 294.0151 0001329  93.2416 266.8729 15.08839395 87933,6917.882,95.438,540.667,538.828,0.0
53170.0,STARLINK-4095,PAYLOAD,2024-02-17 02:12:52,15.0880461,0.0001676,53.2185,293.1216,96.3784,263.7399,0.00076074,0.00011828,0.0,0 STARLINK-4095,1 53170U 22083AQ  24048.09227611  .00011828  00000-0  76074-3 0  9994,2 53170  53.2185 293.1216 0001676  96.3784 263.7399 15.08804610 88595,6917.989,95.44,541.013,538.694,0.0
53170.0,STARLINK-4095,PAYLOAD,2024-02-17 19:42:06,15.08832851,0.0001622,53.2178,289.8507,104.4582,255.659,9.516e-05,1.226e-05,0.0,0 STARLINK-4095,1 53170U 22083AQ  24048.82091428  .00001226  00000-0  95160-4 0  9999,2 53170  53.2178 289.8507 0001622 104.4582 255.6590 15.08832851 88704,6917.902,95.438,540.889,538.645,0.0
53170.0,STARLINK-4095,PAYLOAD,2024-02-17 22:52:53,15.0883753,0.0001486,53.2166,289.2574,94.9774,265.1388,0.00014876,2.08e-05,0.0,0 STARLINK-4095,1 53170U 22083AQ  24048.95339224  .00002080  00000-0  14876-3 0  9995,2 53170  53.2166 289.2574 0001486  94.9774 265.1388 15.08837530 88095,6917.888,95.438,540.781,538.725,0.0
53170.0,STARLINK-4095,PAYLOAD,2024-02-18 08:25:11,15.08842619,0.0001427,53.2162,287.4733,93.7539,266.3617,8.3818e-05,1.046e-05,0.0,0 STARLINK-4095,1 53170U 22083AQ  24049.35082962  .00001046  00000-0  83818-4 0  9998,2 53170  53.2162 287.4733 0001427  93.7539 266.3617 15.08842619 88787,6917.872,95.437,540.725,538.75,0.0
53170.0,STARLINK-4095,PAYLOAD,2024-02-18 22:43:40,15.08845742,0.0001472,53.2177,284.8003,103.4588,256.6569,-3.9525e-05,-9.17e-06,0.0,0 STARLINK-4095,1 53170U 22083AQ  24049.94699230 -.00000917  00000-0 -39525-4 0  9999,2 53170  53.2177 284.8003 0001472 103.4588 256.6569 15.08845742 88246,6917.863,95.437,540.746,538.71,0.0
53170.0,STARLINK-4095,PAYLOAD,2024-02-19 08:15:59,15.08843259,0.0001513,53.2172,283.0153,91.1022,269.0144,-7.9372e-05,-1.551e-05,0.0,0 STARLINK-4095,1 53170U 22083AQ  24050.34443350 -.00001551  00000-0 -79372-4 0  9994,2 53170  53.2172 283.0153 0001513  91.1022 269.0144 15.08843259 88934,6917.87,95.437,540.782,538.689,0.0
53170.0,STARLINK-4095,PAYLOAD,2024-02-19 19:23:41,15.08830998,0.0001474,53.2172,280.9339,100.1247,259.9911,3.4897e-05,2.67e-06,0.0,0 STARLINK-4095,1 53170U 22083AQ  24050.80812302  .00000267  00000-0  34897-4 0  9996,2 53170  53.2172 280.9339 0001474 100.1247 259.9911 15.08830998 89007,6917.908,95.438,540.793,538.753,0.0
